#dP2019  6 25  0  0  0.00000000      96 __u+U ITR00 FIT  IAC
## 2059 172800.00000000   900.00000000 58659 0.0000000000000
+   98   C01C02C03C05C06C07C08C09C10C11C12C13C14C16E01E02E03
+        E04E05E07E08E09E11E12E13E14E15E18E19E21E24E25E26E27
+        E30E31E33E36G01G02G03G04G05G06G07G08G09G10G11G12G13
+        G14G15G16G17G18G19G20G21G22G23G24G25G26G27G28G29G30
+        G31G32J01J02J03J07R01R02R03R04R05R07R08R09R10R11R12
+        R13R14R15R16R17R18R19R20R21R22R23R24R26  0  0  0  0
++        13 12 13 12  9  9  9  8  8  8  8  8  8  9  5  5  6
++         5  6  5  6  6  5  5  5  6  6  5  5  5  5  5  5  5
++         5  5  5  6  4  4  4  4  4  4  4  4  4  3  4  3  3
++         4  4  4  4  4  4  3  3  4  4  4  4  4  4  4  3  4
++         3  4 10 10 10 14  5  5  5  6  6  6  5  5  5  5  5
++         6  5  6  6  5  5  6  6  5  5  5  6  8  0  0  0  0
%c M  cc GPS ccc cccc cccc cccc cccc ccccc ccccc ccccc ccccc
%c cc cc ccc ccc cccc cccc cccc cccc ccccc ccccc ccccc ccccc
%f  0.0000000  0.000000000  0.00000000000  0.000000000000000
%f  0.0000000  0.000000000  0.00000000000  0.000000000000000
%i    0    0    0    0      0      0      0      0         0
%i    0    0    0    0      0      0      0      0         0
/*                                                          
/*   RSA / INFORMATION & ANALYSIS CENTER (IAC) OF MCC       
/*   ULTRA-RAPID DETERMINATION                              
/* PCV:IGS14_2056 OL/AL:FES2004  NONE     YN ORB:CoN CLK:CoN
*  2019 06 25  2 30  0.00000000
PC01 -32311.299062  27055.375408   1039.662104    755.730593
PC02   4344.330028  41928.451799  -1042.207102     75.529847
PC03 -14773.852338  39458.949281    228.271581    609.848041
PC05  21825.933895  36022.476650   -861.264773   -299.437501
PC06  -7408.233595  28035.682980 -30145.712232    597.316175
PC07 -21911.819329  24026.137450  26733.899689    123.162290
PC08 -18568.841637  38006.407273   1361.975362    166.720019
PC09   5805.703357  36471.723165 -19775.709113    868.121471
PC10  -3996.143772  26312.348377  32792.182406   -875.474379
PC11  10664.993367 -15711.487281 -20379.884938    258.999694
PC12  15155.369843  14997.183710 -17989.486564    798.741841
PC13  -9288.193980  39589.657460 -11553.447971   -799.434673
PC14  24952.856039  -1095.504734  12473.793678    552.162021
PC16  -4272.740145  29858.382513 -29351.713767   -907.821126
PE01 -28524.282810   6625.270805  -4288.305238   -633.377255
PE02  28526.746282  -6669.203929   4227.846010     66.358983
PE03  22958.326477   2701.776721  18505.019640   -181.111983
PE04  -9459.898652  14445.168041 -24029.656464   -309.871706
PE05  23093.932042  18403.491030   2076.803874   -472.114320
PE07  -9706.729123 -23272.716995  15508.683007   -213.855722
PE08   9171.816751 -14487.388300  24138.072835   6334.358506
PE09  10022.415750  23131.074012 -15513.955023   6398.510676
PE11    238.593905  28385.196500  -8362.076314   5669.421552
PE12 -12091.551222  24709.086886  10899.187337   6329.951188
PE13   -242.966906 -28435.574043   8233.665190    389.028245
PE14  21997.720453   1119.059499 -23549.840303   -618.245340
PE15  11763.453738 -25011.355452 -10600.047290    905.587880
PE18 -17059.072181  -6843.885681  15366.352066   -714.442143
PE19 -23584.490139  -4532.806185 -17292.814208     -5.562816
PE21 -20222.589270  -7308.396958 -20341.014687   -540.810865
PE24    272.044167  16888.712944  24296.813134   6010.885303
PE25  20186.671069   7342.909835  20373.487648   1762.699469
PE26 -12196.370015 -15280.903668  22223.118784   4414.669567
PE27    -23.155376 -16923.005441 -24284.194662    442.316834
PE30  20040.674432 -16570.450076 -14149.313417   4762.980693
PE31 -20127.502214  16591.906266  13985.735201   -465.920022
PE33 -16915.248563   6914.745861  23285.054094   -469.894455
PE36  12149.619383  15194.580061 -22305.716345    695.537380
PG01 -13940.231654  22384.333843    578.540497    -49.889441
PG02  17750.776609  -7125.120100 -17760.455910   -245.240305
PG03 -13485.372721  12949.093250 -18874.526999    184.255293
PG04  10839.229362  24150.189527  -2191.658063    169.150256
PG05  26393.007704  -2427.863359   2875.362639      0.383540
PG06  12469.203979   8109.605645 -21961.629048    168.357110
PG07  -3540.754284  22945.798786  12712.455004    -51.268104
PG08 -11182.315278  10409.093272  21738.565755   -148.708001
PG09   6443.336619  24097.790723  -9146.421942    384.667163
PG10 -17633.012203 -11544.162027  16348.224770      5.339887
PG11  -9354.349105  22960.156519   9341.569335   -576.707094
PG12  16110.915477 -10901.381975 -18221.248075    230.002737
PG13  15763.482462   -164.138157  21275.074385    -57.546056
PG14 -17252.889989 -14886.417851 -13472.409207    -74.538015
PG15  10478.638116 -12248.513621  20800.962169   -304.977992
PG16 -26567.872961   -447.353721   3265.439834    -50.834344
PG17  14950.978848  20975.507430  -6255.960035     77.468378
PG18 -16799.158507  18166.985012   8980.924783     64.691354
PG19  16720.165474  15837.645706 -13478.715930   -302.364326
PG20  -8502.996707 -14437.626278  20534.118242    525.590874
PG21  -2273.939953 -21364.864173  16513.712822   -166.806421
PG22 -20000.898264  11118.010420 -13183.982076   -721.985716
PG23  -4427.760093  18421.772862 -18107.855410   -180.242872
PG24  14637.500782 -21553.297321   3992.108873    -67.923821
PG25   1900.567810 -15050.547966 -22003.366709   -768.471913
PG26 -25220.071766  -4780.337021  -7192.123921    235.337316
PG27 -17106.771335  -2797.970842  20099.682873   -166.991969
PG28  16002.188354  13172.271336  17156.913232    767.176056
PG29  -1945.266899 -23346.305072 -12541.923096    167.921533
PG30   5295.233384  17512.107953  19214.897071   -130.428894
PG31 -13891.480649  -6475.983325 -21713.033546     28.770421
PG32 -16824.498725 -19338.971523  -7127.226887    -29.451718
PJ01 -29246.729683  15809.844297 -21255.097315   -282.567017
PJ02 -29756.026820  29437.466463   9466.628946     -0.552899
PJ03 -24944.849768  24791.151621  28318.900431      1.249365
PJ07 -25336.820462  33693.037701    -20.672438     -0.020855
PR01  15643.077944  15418.088704 -12978.211832     45.829627
PR02  22811.513107   8734.158631   7304.091722    375.182287
PR03  14834.241963  -3020.654516  20562.673506     -2.737374
PR04  -2323.220803 -13131.661711  21769.558095    311.380760
PR05 -17205.104304 -15356.408803  10937.744487     30.687991
PR07 -14498.860840   3265.438164 -20700.950448    -22.335251
PR08   1553.779663  12818.200649 -21939.417760     17.067251
PR09 -21015.200993   4943.252223 -13515.287763     76.803337
PR10 -21707.171469  13266.597723   1029.956945     52.938541
PR11  -9805.956460  15731.494775  17509.896518    -70.557519
PR12   6396.776555   8831.598389  23085.919801     37.834970
PR13  20079.889036  -3946.532319  15217.725539    -25.239709
PR14  21567.976422 -13585.610808  -1197.512111     40.274031
PR15  10741.664842 -15746.528325 -16932.576936    102.739037
PR16  -6872.681274  -8727.878649 -22986.605767      8.188933
PR17   9014.309832 -12904.569401 -20057.167502    238.444841
PR18   2722.624116 -24497.818930  -6674.789037     -2.063352
PR19  -4385.959031 -22945.221351  10239.538429    -38.204134
PR20 -10004.496321  -6743.333245  22483.073988   -382.291183
PR21  -8777.676274  13594.774171  19721.263151    -55.970498
PR22  -1581.144224  25080.745262   3970.579526    -25.474627
PR23   6900.027740  19525.568512 -14904.170956    236.539849
PR24  10357.834295   4468.095658 -22906.701171   -181.915678
PR26  -9807.339961  -9517.413837  21539.240883 999999.999999
EOF
